NORAD_CAT_ID,OBJECT_NAME,OBJECT_TYPE,EPOCH,MEAN_MOTION,ECCENTRICITY,INCLINATION,RA_OF_ASC_NODE,ARG_OF_PERICENTER,MEAN_ANOMALY,BSTAR,MEAN_MOTION_DOT,MEAN_MOTION_DDOT,TLE_LINE0,TLE_LINE1,TLE_LINE2,SEMIMAJOR_AXIS,PERIOD,APOGEE,PERIGEE,DECAYED
53529.0,STARLINK-4478,PAYLOAD,2024-08-11 22:34:49,15.088448,0.0001518,53.2154,134.2825,77.9416,282.1746,0.000258,3.821e-05,0.0,0 STARLINK-4478,1 53529U 22101C   24224.94084618  .00003821  00000-0  25800-3 0  9996,2 53529  53.2154 134.2825 0001518  77.9416 282.1746 15.08844800109390,6917.866,95.437,540.781,538.681,0.0
53529.0,STARLINK-4478,PAYLOAD,2024-08-12 00:10:11,15.08854069,0.0001467,53.2157,133.9798,91.0934,269.0226,0.00059432,9.187e-05,0.0,0 STARLINK-4478,1 53529U 22101C   24225.00708222  .00009187  00000-0  59432-3 0  9997,2 53529  53.2157 133.9798 0001467  91.0934 269.0226 15.08854069109400,6917.837,95.437,540.717,538.688,0.0
53529.0,STARLINK-4478,PAYLOAD,2024-08-12 11:17:53,15.08853092,0.0001278,53.215,131.8978,81.3098,278.8039,0.00055198,8.511e-05,0.0,0 STARLINK-4478,1 53529U 22101C   24225.47075950  .00008511  00000-0  55198-3 0  9998,2 53529  53.2150 131.8978 0001278  81.3098 278.8039 15.08853092109475,6917.84,95.437,540.589,538.821,0.0
53529.0,STARLINK-4478,PAYLOAD,2024-08-12 17:39:26,15.08854686,0.0001512,53.2149,130.7079,95.9276,264.1889,0.00049079,7.535e-05,0.0,0 STARLINK-4478,1 53529U 22101C   24225.73572225  .00007535  00000-0  49079-3 0  9990,2 53529  53.2149 130.7079 0001512  95.9276 264.1889 15.08854686109519,6917.836,95.437,540.746,538.655,0.0
53529.0,STARLINK-4478,PAYLOAD,2024-08-12 22:25:35,15.08868391,0.0002002,53.2141,129.8232,70.6055,289.5154,0.00070371,0.00010938,0.0,0 STARLINK-4478,1 53529U 22101C   24225.93443771  .00010938  00000-0  70371-3 0  9995,2 53529  53.2141 129.8232 0002002  70.6055 289.5154 15.08868391109548,6917.794,95.436,541.044,538.274,0.0
53529.0,STARLINK-4478,PAYLOAD,2024-08-13 11:08:44,15.08780256,0.0001666,53.2158,127.436,96.2305,263.8877,-0.0009427,-0.00015235,0.0,0 STARLINK-4478,1 53529U 22101C   24226.46439913 -.00015235  00000-0 -94270-3 0  9998,2 53529  53.2158 127.4360 0001666  96.2305 263.8877 15.08780256109628,6918.063,95.441,541.081,538.775,0.0
53529.0,STARLINK-4478,PAYLOAD,2024-08-13 17:30:16,15.08775892,9.35e-05,53.2135,126.2529,38.2437,321.8621,-0.0010676,-0.00017208,0.0,0 STARLINK-4478,1 53529U 22101C   24226.72936100 -.00017208  00000-0 -10676-2 0  9996,2 53529  53.2135 126.2529 0000935  38.2437 321.8621 15.08775892109663,6918.076,95.442,540.588,539.295,0.0
53529.0,STARLINK-4478,PAYLOAD,2024-08-13 22:16:25,15.08830675,0.0001843,53.2152,125.361,105.4941,254.6255,0.0002468,3.641e-05,0.0,0 STARLINK-4478,1 53529U 22101C   24226.92806726  .00003641  00000-0  24680-3 0  9993,2 53529  53.2152 125.3610 0001843 105.4941 254.6255 15.08830675109699,6917.909,95.438,541.049,538.499,0.0
53529.0,STARLINK-4478,PAYLOAD,2024-08-13 23:51:48,15.08834701,0.0001428,53.2151,125.0599,95.8956,264.2199,0.00039145,5.947e-05,0.0,0 STARLINK-4478,1 53529U 22101C   24226.99430728  .00005947  00000-0  39145-3 0  9998,2 53529  53.2151 125.0599 0001428  95.8956 264.2199 15.08834701109708,6917.897,95.438,540.749,538.774,0.0
53529.0,STARLINK-4478,PAYLOAD,2024-08-14 22:07:11,15.08863743,0.0001772,53.2169,120.8981,93.4683,266.6512,0.00097326,0.00015245,0.0,0 STARLINK-4478,1 53529U 22101C   24227.92166511  .00015245  00000-0  97326-3 0  9995,2 53529  53.2169 120.8981 0001772  93.4683 266.6512 15.08863743109846,6917.808,95.436,540.899,538.447,0.0
53529.0,STARLINK-4478,PAYLOAD,2024-08-14 23:42:34,15.08868036,0.0001382,53.2154,120.6014,95.6855,264.4295,0.0012768,0.00020106,0.0,0 STARLINK-4478,1 53529U 22101C   24227.98790365  .00020106  00000-0  12768-2 0  9999,2 53529  53.2154 120.6014 0001382  95.6855 264.4295 15.08868036109852,6917.795,95.436,540.616,538.704,0.0
53529.0,STARLINK-4478,PAYLOAD,2024-08-15 21:57:57,15.08858523,0.0001375,53.2161,116.4362,103.5285,256.5861,9.3625e-06,-1.39e-06,0.0,0 STARLINK-4478,1 53529U 22101C   24228.91525366 -.00000139  00000-0  93625-5 0  9999,2 53529  53.2161 116.4362 0001375 103.5285 256.5861 15.08858523109993,6917.824,95.436,540.64,538.738,0.0
53529.0,STARLINK-4478,PAYLOAD,2024-08-15 23:33:20,15.0886103,0.0001365,53.216,116.1386,106.905,253.2092,0.0001016,1.33e-05,0.0,0 STARLINK-4478,1 53529U 22101C   24228.98149256  .00001330  00000-0  10160-3 0  9990,2 53529  53.2160 116.1386 0001365 106.9050 253.2092 15.08861030110002,6917.816,95.436,540.625,538.737,0.0
53529.0,STARLINK-4478,PAYLOAD,2024-08-16 21:48:44,15.08843244,0.0001238,53.2153,111.9744,98.602,261.5112,5.8883e-05,6.49e-06,0.0,0 STARLINK-4478,1 53529U 22101C   24229.90885308  .00000649  00000-0  58883-4 0  9995,2 53529  53.2153 111.9744 0001238  98.6020 261.5112 15.08843244110145,6917.87,95.437,540.592,538.879,0.0
53529.0,STARLINK-4478,PAYLOAD,2024-08-17 02:34:53,15.08851491,0.0001186,53.2147,111.0824,99.3802,260.7324,2.7066e-05,1.43e-06,0.0,0 STARLINK-4478,1 53529U 22101C   24230.10756897  .00000143  00000-0  27066-4 0  9997,2 53529  53.2147 111.0824 0001186  99.3802 260.7324 15.08851491110178,6917.845,95.437,540.531,538.89,0.0
53529.0,STARLINK-4478,PAYLOAD,2024-08-17 16:53:22,15.08836254,0.0001118,53.2141,108.4019,90.6222,269.4899,-8.1515e-05,-1.585e-05,0.0,0 STARLINK-4478,1 53529U 22101C   24230.70373527 -.00001585  00000-0 -81515-4 0  9990,2 53529  53.2141 108.4019 0001118  90.6222 269.4899 15.08836254110266,6917.892,95.438,540.53,538.983,0.0
53529.0,STARLINK-4478,PAYLOAD,2024-08-17 21:39:32,15.08838355,0.0001118,53.215,107.5099,90.2434,269.8687,-9.0963e-05,-1.735e-05,0.0,0 STARLINK-4478,1 53529U 22101C   24230.90245612 -.00001735  00000-0 -90963-4 0  9999,2 53529  53.2150 107.5099 0001118  90.2434 269.8687 15.08838355110291,6917.885,95.438,540.524,538.977,0.0
53529.0,STARLINK-4478,PAYLOAD,2024-08-18 02:25:41,15.08839665,0.0001195,53.2154,106.6226,101.659,258.4536,8.7822e-05,1.11e-05,0.0,0 STARLINK-4478,1 53529U 22101C   24231.10117774  .00001110  00000-0  87822-4 0  9994,2 53529  53.2154 106.6226 0001195 101.6590 258.4536 15.08839665110328,6917.881,95.438,540.573,538.92,0.0
53529.0,STARLINK-4478,PAYLOAD,2024-08-18 19:54:55,15.08853457,0.0001147,53.2162,103.3513,97.1631,262.9491,0.00018889,2.721e-05,0.0,0 STARLINK-4478,1 53529U 22101C   24231.82981025  .00002721  00000-0  18889-3 0  9996,2 53529  53.2162 103.3513 0001147  97.1631 262.9491 15.08853457110439,6917.839,95.437,540.498,538.911,0.0
53529.0,STARLINK-4478,PAYLOAD,2024-08-18 21:30:18,15.08854551,0.0001146,53.2158,103.0547,97.7283,262.3839,0.00031839,4.785e-05,0.0,0 STARLINK-4478,1 53529U 22101C   24231.89605074  .00004785  00000-0  31839-3 0  9992,2 53529  53.2158 103.0547 0001146  97.7283 262.3839 15.08854551110443,6917.836,95.437,540.494,538.908,0.0
53529.0,STARLINK-4478,PAYLOAD,2024-08-19 08:38:01,15.08821542,0.0001283,53.2153,100.9739,95.9958,264.118,-0.00024563,-4.193e-05,0.0,0 STARLINK-4478,1 53529U 22101C   24232.35974363 -.00004193  00000-0 -24563-3 0  9995,2 53529  53.2153 100.9739 0001283  95.9958 264.1180 15.08821542110519,6917.937,95.439,540.689,538.914,0.0
53529.0,STARLINK-4478,PAYLOAD,2024-08-19 22:56:30,15.08821728,0.0001507,53.216,98.2965,93.5718,266.5446,3.6213e-05,2.88e-06,0.0,0 STARLINK-4478,1 53529U 22101C   24232.95591395  .00000288  00000-0  36213-4 0  9996,2 53529  53.2160  98.2965 0001507  93.5718 266.5446 15.08821728110601,6917.936,95.439,540.844,538.759,0.0
53529.0,STARLINK-4478,PAYLOAD,2024-08-20 19:36:31,15.08874309,0.0001532,53.2159,94.4279,101.3808,258.7357,0.0016898,0.00026733,0.0,0 STARLINK-4478,1 53529U 22101C   24233.81702706  .00026733  00000-0  16898-2 0  9990,2 53529  53.2159  94.4279 0001532 101.3808 258.7357 15.08874309110732,6917.776,95.435,540.7,538.581,0.0
53529.0,STARLINK-4478,PAYLOAD,2024-08-20 21:11:54,15.08881971,0.0001512,53.216,94.1299,102.2224,257.8938,0.0017627,0.00027909,0.0,0 STARLINK-4478,1 53529U 22101C   24233.88326481  .00027909  00000-0  17627-2 0  9996,2 53529  53.2160  94.1299 0001512 102.2224 257.8938 15.08881971110742,6917.752,95.435,540.663,538.571,0.0
53529.0,STARLINK-4478,PAYLOAD,2024-08-21 17:51:54,15.08870755,0.0001425,53.2157,90.2652,105.6107,254.5042,0.0020633,0.0003273,0.0,0 STARLINK-4478,1 53529U 22101C   24234.74438249  .00032730  00000-0  20633-2 0  9997,2 53529  53.2157  90.2652 0001425 105.6107 254.5042 15.08870755110870,6917.786,95.436,540.637,538.666,0.0
53529.0,STARLINK-4478,PAYLOAD,2024-08-21 19:27:17,15.08858088,0.0001435,53.2144,89.9699,125.7376,234.375,0.0011246,0.00017664,0.0,0 STARLINK-4478,1 53529U 22101C   24234.81062095  .00017664  00000-0  11246-2 0  9996,2 53529  53.2144  89.9699 0001435 125.7376 234.3750 15.08858088110882,6917.825,95.436,540.683,538.697,0.0
